HST                     
1 20580U 90037B   26188.41758047  .00005122  00000+0  15863-3 0  9990
2 20580  28.4735 302.2866 0001900  28.7045 331.3656 15.31001847791676
SL-16 R/B               
1 20625U 90046B   26188.02447611 -.00000134  00000+0 -44695-4 0  9995
2 20625  70.9985  47.2860 0012492 128.7827 231.4414 14.15022999865274
COSMOS 2084             
1 20663U 90055A   26188.31108529  .00001496  00000+0  11530-3 0  9992
2 20663  62.7906 287.4010 0007122 310.3089  49.7388 15.06204447954333
SL-8 R/B                
1 20775U 90078B   26188.30315126  .00018135  00000+0  51344-3 0  9998
2 20775  82.9026 143.4549 0344934 330.3952  27.8119 14.93355009827129
SL-8 R/B                
1 21088U 91006B   26188.13269003  .00000075  00000+0  59376-4 0  9999
2 21088  82.9419  81.1957 0023755  61.9631 107.5126 13.77508204780513
OKEAN-3                 
1 21397U 91039A   26188.14629610  .00001523  00000+0  10408-3 0  9994
2 21397  82.5138 221.0256 0011974 284.7347  75.2552 15.05409793883004
SL-14 R/B               
1 21423U 91042B   26188.20702888  .00000308  00000+0  35889-4 0  9995
2 21423  82.4936 108.1227 0016266 203.6005 156.4465 14.81914985870774
ERS-1                   
1 21574U 91050A   26187.90490957  .00000197  00000+0  77547-4 0  9991
2 21574  98.7794 209.0845 0031387 206.5619 153.3961 14.39529141832880
ARIANE 40 R/B           
1 21610U 91050F   26188.08897309  .00000229  00000+0  80834-4 0  9993
2 21610  98.1864 235.7296 0004408  78.8859 281.2828 14.42968807836213
INTERCOSMOS 25          
1 21819U 91086A   26188.00384927  .00001235  00000+0  24391-3 0  9995
2 21819  82.6021 237.8180 1484182 219.6061 128.6898 12.12228872511154
SL-8 R/B                
1 21876U 92008B   26188.43223628  .00000133  00000+0  12095-3 0  9994
2 21876  82.9264 178.7347 0035210 157.8500 354.8046 13.75982048725888
SL-8 R/B                
1 21938U 92020B   26188.07727595  .00000023  00000+0  86770-5 0  9990
2 21938  82.9293  65.0825 0028358 327.0562 192.6993 13.75550288717542
USA 81                  
1 21949U 92023A   26188.11398897  .00000128  00000+0  39786-4 0  9999
2 21949  85.0060  62.5052 0002327  68.8628 291.2813 14.32403447111885
COSMOS 2219             
1 22219U 92076A   26188.27999555 -.00000010  00000+0  19383-4 0  9995
2 22219  71.0614 128.0688 0017737  10.1700 349.9778 14.14110104735283
SL-16 R/B               
1 22220U 92076B   26188.28548848  .00000058  00000+0  52981-4 0  9995
2 22220  71.0009 296.4431 0014999 272.2641 116.6457 14.16874134738773
COSMOS 2221             
1 22236U 92080A   26188.39814536  .00001403  00000+0  12066-3 0  9993
2 22236  82.5037 164.4001 0015164 144.3451 215.8787 14.96588785798695
SL-16 R/B               
1 22285U 92093B   26188.17122987  .00000079  00000+0  64735-4 0  9998
2 22285  71.0223 113.4395 0002744 151.9525 208.1746 14.15466783730066
SL-16 R/B               
1 22566U 93016B   26188.36542067 -.00000190  00000+0 -73320-4 0  9998
2 22566  71.0085 323.8253 0009092 152.0762 208.0850 14.15311921719102
COSMOS 2242             
1 22626U 93024A   26188.36794657  .00001589  00000+0  13576-3 0  9995
2 22626  82.5192 152.2348 0014374 261.9777  97.9814 14.96968252798295
SL-16 R/B               
1 22803U 93059B   26188.25239224 -.00000026  00000+0  10919-4 0  9997
2 22803  70.9906 118.9903 0016231  20.8890 339.2893 14.17251272696470
ARIANE 40 R/B           
1 22830U 93061H   26188.10637362  .00000157  00000+0  73136-4 0  9993
2 22830  98.4810 254.5489 0009512 292.8099  67.2080 14.32916294711205
COSMOS 2278             
1 23087U 94023A   26188.26144305 -.00000233  00000+0 -96909-4 0  9994
2 23087  71.0538 284.9254 0010015 217.6314 142.4109 14.14394776661719
SL-16 R/B               
1 23088U 94023B   26187.68871691 -.00000212  00000+0 -84573-4 0  9996
2 23088  70.9977 180.9760 0001599 157.4247 202.6946 14.15024765662926
SL-16 R/B               
1 23343U 94074B   26188.02510892  .00000351  00000+0  53512-4 0  9999
2 23343  97.6984 213.9188 0006456 179.4769 210.7216 14.79519407704890
SL-16 R/B               
1 23405U 94077B   26188.18920702 -.00000241  00000+0 -98467-4 0  9991
2 23405  70.9832 101.0830 0004006 309.8696  50.2074 14.15576957633144
ARIANE 40+ R/B          
1 23561U 95021B   26188.19943985  .00000215  00000+0  82220-4 0  9992
2 23561  98.4403 257.9846 0007639 137.0236 244.1674 14.39844596636449
SL-16 R/B               
1 23705U 95058B   26188.27260765 -.00000230  00000+0 -93317-4 0  9997
2 23705  71.0220 289.1886 0014630 293.1672  66.7909 14.15508853584775
